{
  "type": "FeatureCollection",
  "features": [
    {
      "type": "Feature",
      "properties": {
        "norad_id": 66583,
        "name": "STARLINK-35941",
        "group": "last-30-days",
        "lat": -5.804485032506501,
        "lon": 133.05531797804264,
        "alt_km": 415.50349484790604,
        "timestamp": "2025-12-09T14:52:24.942240+00:00",
        "meta_object_name": "STARLINK-35941",
        "meta_object_id": "2025-268AC",
        "meta_epoch": "2025-12-09T06:00:02.000160",
        "meta_mean_motion": 15.50556983,
        "meta_eccentricity": 0.00021938,
        "meta_inclination": 43.0009,
        "meta_ra_of_asc_node": 141.4809,
        "meta_arg_of_pericenter": 263.9111,
        "meta_mean_anomaly": 181.4301,
        "meta_ephemeris_type": 0,
        "meta_classification_type": "U",
        "meta_norad_cat_id": 66583,
        "meta_element_set_no": 999,
        "meta_rev_at_epoch": 410,
        "meta_bstar": -0.00026193222,
        "meta_mean_motion_dot": -0.00015666,
        "meta_mean_motion_ddot": 0,
        "tle_line1": "1 66583U 25268AC  25343.25002315 -.00015666  00000+0 -26193-3 0  9995",
        "tle_line2": "2 66583  43.0009 141.4809 0002193 263.9111 181.4301 15.50556983  4101"
      },
      "geometry": {
        "type": "Point",
        "coordinates": [
          133.05531797804264,
          -5.804485032506501
        ]
      }
    },
    {
      "type": "Feature",
      "properties": {
        "norad_id": 66584,
        "name": "STARLINK-35939",
        "group": "last-30-days",
        "lat": -4.507052221524999,
        "lon": 134.4611181495622,
        "alt_km": 415.4456514958356,
        "timestamp": "2025-12-09T14:52:24.942251+00:00",
        "meta_object_name": "STARLINK-35939",
        "meta_object_id": "2025-268AD",
        "meta_epoch": "2025-12-09T06:00:02.000160",
        "meta_mean_motion": 15.50547555,
        "meta_eccentricity": 0.00021673,
        "meta_inclination": 43.0007,
        "meta_ra_of_asc_node": 141.4764,
        "meta_arg_of_pericenter": 261.0556,
        "meta_mean_anomaly": 186.1988,
        "meta_ephemeris_type": 0,
        "meta_classification_type": "U",
        "meta_norad_cat_id": 66584,
        "meta_element_set_no": 999,
        "meta_rev_at_epoch": 410,
        "meta_bstar": 0.00014985575,
        "meta_mean_motion_dot": 8.449e-05,
        "meta_mean_motion_ddot": 0,
        "tle_line1": "1 66584U 25268AD  25343.25002315  .00008449  00000+0  14986-3 0  9992",
        "tle_line2": "2 66584  43.0007 141.4764 0002167 261.0556 186.1988 15.50547555  4101"
      },
      "geometry": {
        "type": "Point",
        "coordinates": [
          134.4611181495622,
          -4.507052221524999
        ]
      }
    },
    {
      "type": "Feature",
      "properties": {
        "norad_id": 66585,
        "name": "STARLINK-35963",
        "group": "last-30-days",
        "lat": -3.2015833755227083,
        "lon": 135.86687199475898,
        "alt_km": 415.0604039063528,
        "timestamp": "2025-12-09T14:52:24.942279+00:00",
        "meta_object_name": "STARLINK-35963",
        "meta_object_id": "2025-268AE",
        "meta_epoch": "2025-12-09T06:00:02.000160",
        "meta_mean_motion": 15.50563259,
        "meta_eccentricity": 0.00019354,
        "meta_inclination": 43.0007,
        "meta_ra_of_asc_node": 141.4711,
        "meta_arg_of_pericenter": 274.2926,
        "meta_mean_anomaly": 174.8814,
        "meta_ephemeris_type": 0,
        "meta_classification_type": "U",
        "meta_norad_cat_id": 66585,
        "meta_element_set_no": 999,
        "meta_rev_at_epoch": 410,
        "meta_bstar": -0.00045608409,
        "meta_mean_motion_dot": -0.00026992,
        "meta_mean_motion_ddot": 0,
        "tle_line1": "1 66585U 25268AE  25343.25002315 -.00026992  00000+0 -45608-3 0  9993",
        "tle_line2": "2 66585  43.0007 141.4711 0001935 274.2926 174.8814 15.50563259  4104"
      },
      "geometry": {
        "type": "Point",
        "coordinates": [
          135.86687199475898,
          -3.2015833755227083
        ]
      }
    },
    {
      "type": "Feature",
      "properties": {
        "norad_id": 66586,
        "name": "TJS-21",
        "group": "last-30-days",
        "lat": 43.70858268021921,
        "lon": -46.074002702583975,
        "alt_km": 23632.247469231334,
        "timestamp": "2025-12-09T14:52:24.942300+00:00",
        "meta_object_name": "TJS-21",
        "meta_object_id": "2025-269A",
        "meta_epoch": "2025-12-07T17:43:38.148672",
        "meta_mean_motion": 2.00608507,
        "meta_eccentricity": 0.6806665,
        "meta_inclination": 63.2904,
        "meta_ra_of_asc_node": 162.9189,
        "meta_arg_of_pericenter": 269.7757,
        "meta_mean_anomaly": 18.6616,
        "meta_ephemeris_type": 0,
        "meta_classification_type": "U",
        "meta_norad_cat_id": 66586,
        "meta_element_set_no": 999,
        "meta_rev_at_epoch": 33,
        "meta_bstar": 3.2363,
        "meta_mean_motion_dot": 1.641e-05,
        "meta_mean_motion_ddot": 0,
        "tle_line1": "1 66586U 25269A   25341.73863598  .00001641  00000+0  32363+1 0  9997",
        "tle_line2": "2 66586  63.2904 162.9189 6806665 269.7757  18.6616  2.00608507   335"
      },
      "geometry": {
        "type": "Point",
        "coordinates": [
          -46.074002702583975,
          43.70858268021921
        ]
      }
    },
    {
      "type": "Feature",
      "properties": {
        "norad_id": 66587,
        "name": "CZ-3B R/B",
        "group": "last-30-days",
        "lat": 43.94174006566785,
        "lon": -139.09294241575103,
        "alt_km": 35665.34150400337,
        "timestamp": "2025-12-09T14:52:24.942329+00:00",
        "meta_object_name": "CZ-3B R/B",
        "meta_object_id": "2025-269B",
        "meta_epoch": "2025-12-08T20:16:41.021472",
        "meta_mean_motion": 2.02868931,
        "meta_eccentricity": 0.75197707,
        "meta_inclination": 51.3469,
        "meta_ra_of_asc_node": 170.5472,
        "meta_arg_of_pericenter": 228.0184,
        "meta_mean_anomaly": 37.9662,
        "meta_ephemeris_type": 0,
        "meta_classification_type": "U",
        "meta_norad_cat_id": 66587,
        "meta_element_set_no": 999,
        "meta_rev_at_epoch": 37,
        "meta_bstar": 0.0012549545,
        "meta_mean_motion_dot": 0.00050168,
        "meta_mean_motion_ddot": 4.22146e-07,
        "tle_line1": "1 66587U 25269B   25342.84491923  .00050168  42215-6  12550-2 0  9997",
        "tle_line2": "2 66587  51.3469 170.5472 7519770 228.0184  37.9662  2.02868931   371"
      },
      "geometry": {
        "type": "Point",
        "coordinates": [
          -139.09294241575103,
          43.94174006566785
        ]
      }
    },
    {
      "type": "Feature",
      "properties": {
        "norad_id": 66588,
        "name": "STARLINK-36076",
        "group": "last-30-days",
        "lat": -26.612183362799332,
        "lon": 63.531383793498094,
        "alt_km": 402.7084622823486,
        "timestamp": "2025-12-09T14:52:24.942348+00:00",
        "meta_object_name": "STARLINK-36076",
        "meta_object_id": "2025-270A",
        "meta_epoch": "2025-12-09T06:00:02.000160",
        "meta_mean_motion": 15.57031933,
        "meta_eccentricity": 0.00017467,
        "meta_inclination": 42.9993,
        "meta_ra_of_asc_node": 213.1864,
        "meta_arg_of_pericenter": 263.7149,
        "meta_mean_anomaly": 43.5924,
        "meta_ephemeris_type": 0,
        "meta_classification_type": "U",
        "meta_norad_cat_id": 66588,
        "meta_element_set_no": 999,
        "meta_rev_at_epoch": 384,
        "meta_bstar": -0.031282922,
        "meta_mean_motion_dot": -0.02070938,
        "meta_mean_motion_ddot": 0,
        "tle_line1": "1 66588U 25270A   25343.25002315 -.02070938  00000+0 -31283-1 0  9992",
        "tle_line2": "2 66588  42.9993 213.1864 0001746 263.7149  43.5924 15.57031933  3845"
      },
      "geometry": {
        "type": "Point",
        "coordinates": [
          63.531383793498094,
          -26.612183362799332
        ]
      }
    },
    {
      "type": "Feature",
      "properties": {
        "norad_id": 66589,
        "name": "STARLINK-35447",
        "group": "last-30-days",
        "lat": -28.77093018586902,
        "lon": 67.10023271899615,
        "alt_km": 402.845731484269,
        "timestamp": "2025-12-09T14:52:24.942360+00:00",
        "meta_object_name": "STARLINK-35447",
        "meta_object_id": "2025-270B",
        "meta_epoch": "2025-12-09T06:00:02.000160",
        "meta_mean_motion": 15.57034435,
        "meta_eccentricity": 0.00016053,
        "meta_inclination": 42.9995,
        "meta_ra_of_asc_node": 213.1767,
        "meta_arg_of_pericenter": 262.7394,
        "meta_mean_anomaly": 48.4001,
        "meta_ephemeris_type": 0,
        "meta_classification_type": "U",
        "meta_norad_cat_id": 66589,
        "meta_element_set_no": 999,
        "meta_rev_at_epoch": 394,
        "meta_bstar": -0.031292445,
        "meta_mean_motion_dot": -0.02071578,
        "meta_mean_motion_ddot": 0,
        "tle_line1": "1 66589U 25270B   25343.25002315 -.02071578  00000+0 -31292-1 0  9994",
        "tle_line2": "2 66589  42.9995 213.1767 0001605 262.7394  48.4001 15.57034435  3946"
      },
      "geometry": {
        "type": "Point",
        "coordinates": [
          67.10023271899615,
          -28.77093018586902
        ]
      }
    }
  ]
}